GOES 17                 
1 43226U 18022A   26074.20622310 -.00000183  00000+0  00000+0 0  9996
2 43226   0.6944  87.3034 0001631 233.7876 196.4486  1.00272306 29486
GSAT0221 (GALILEO 25)   
1 43564U 18060A   26065.99917537 -.00000103  00000+0  00000+0 0  9999
2 43564  57.2026 344.5430 0005694 308.1098  51.8621  1.70475614 47427
GSAT0222 (GALILEO 26)   
1 43565U 18060B   26065.04549094 -.00000105  00000+0  00000+0 0  9997
2 43565  57.2060 344.5721 0004084 287.9587  72.0183  1.70475258 47453
GSAT0219 (GALILEO 23)   
1 43566U 18060C   26067.02636862 -.00000101  00000+0  00000+0 0  9994
2 43566  57.2050 344.5202 0004318 344.0327  15.9782  1.70474822 47462
GSAT0220 (GALILEO 24)   
1 43567U 18060D   26058.44840234 -.00000102  00000+0  00000+0 0  9992
2 43567  57.2075 344.7516 0005301 308.5821  51.3768  1.70475159 47302
BEIDOU-3 M13            
1 43622U 18072A   26074.03169972  .00000021  00000+0  00000+0 0  9992
2 43622  56.5429  65.7646 0009068 308.7674  51.1738  1.86231337 50905
BEIDOU-3 M14            
1 43623U 18072B   26071.74933770  .00000008  00000+0  00000+0 0  9998
2 43623  56.5428  65.8343 0006575 329.8398  30.1432  1.86231274 50859
GPS BIII-1              
1 43873U 18109A   26072.52464372  .00000035  00000+0  00000+0 0  9990
2 43873  55.6205  95.9595 0038059 198.5669 333.4222  2.00557317 53154
METEOR-M2 2             
1 44387U 19038A   26074.25438356  .00000166  00000+0  91504-4 0  9997
2 44387  98.9092  60.1831 0000584 349.3933  10.7233 14.24336618347924
GPS BIII-2              
1 44506U 19056A   26073.65497499 -.00000072  00000+0  00000+0 0  9999
2 44506  55.6800 334.9029 0058240 197.9897 330.8097  2.00568616 48178
BEIDOU-3 M24            
1 44542U 19061A   26073.20132124 -.00000013  00000+0  00000+0 0  9992
2 44542  54.3984 185.9306 0008488  19.2225 340.7928  1.86229100 44027
BEIDOU-3 M23            
1 44543U 19061B   26073.45188475 -.00000012  00000+0  00000+0 0  9999
2 44543  54.3970 185.8909 0004923  10.3958  69.7972  1.86227431 44039
BEIDOU-3 M22            
1 44793U 19078A   26073.04051358 -.00000019  00000+0  00000+0 0  9995
2 44793  54.0216 303.1765 0007465  38.1970 321.9120  1.86232320 42878
BEIDOU-3 M21            
1 44794U 19078B   26073.71723725 -.00000016  00000+0  00000+0 0  9991
2 44794  53.9944 303.1159 0005495  33.8306 326.2620  1.86228018 42892
ELEKTRO-L 3             
1 44903U 19095A   26072.58515229 -.00000096  00000+0  00000+0 0  9992
2 44903   0.0380 340.0026 0001508   9.4736 108.2976  1.00270722 22751
GPS BIII-3              
1 45854U 20041A   26074.23277601 -.00000049  00000+0  00000+0 0  9992
2 45854  56.6123  32.5896 0061514 205.1444 322.6890  2.00560555 42151
COSMOS 2547             
1 46805U 20075A   26071.27634948  .00000011  00000+0  00000+0 0  9996
2 46805  64.5993 195.7069 0007007 230.8854 129.0383  2.13100396 41840
